[{"CCSDS_OMM_VERS":"2.0","COMMENT":"GENERATED VIA SPACE-TRACK.ORG API","CREATION_DATE":"2004-08-15T23:35:47","ORIGINATOR":"18 SPCS","OBJECT_NAME":"CIS UNKNOWN 2 DEB","OBJECT_ID":"1966-101C","CENTER_NAME":"EARTH","REF_FRAME":"TEME","TIME_SYSTEM":"UTC","MEAN_ELEMENT_THEORY":"SGP4","EPOCH":"1966-11-06T02:42:47.362752","MEAN_MOTION":"14.22038129","ECCENTRICITY":"0.09658770","INCLINATION":"49.2246","RA_OF_ASC_NODE":"37.2055","ARG_OF_PERICENTER":"103.9540","MEAN_ANOMALY":"266.9674","EPHEMERIS_TYPE":"0","CLASSIFICATION_TYPE":"U","NORAD_CAT_ID":"2539","ELEMENT_SET_NO":"999","REV_AT_EPOCH":"57","BSTAR":"0.00000000000000","MEAN_MOTION_DOT":"0.05160644","MEAN_MOTION_DDOT":"0.0000000000000","SEMIMAJOR_AXIS":"7196.609","PERIOD":"101.263","APOAPSIS":"1513.578","PERIAPSIS":"123.370","OBJECT_TYPE":"DEBRIS","RCS_SIZE":null,"COUNTRY_CODE":null,"LAUNCH_DATE":null,"SITE":null,"DECAY_DATE":"1966-11-15","FILE":"33914","GP_ID":"8721472","TLE_LINE0":"0 CIS UNKNOWN 2 DEB","TLE_LINE1":"1 02539U 66101  C 66310.11304818  .05160644 +00000-0 +00000-0 0  9991","TLE_LINE2":"2 02539 049.2246 037.2055 0965877 103.9540 266.9674 14.22038129000578"},{"CCSDS_OMM_VERS":"2.0","COMMENT":"GENERATED VIA SPACE-TRACK.ORG API","CREATION_DATE":"2004-08-15T23:35:47","ORIGINATOR":"18 SPCS","OBJECT_NAME":"CIS UNKNOWN 2 DEB","OBJECT_ID":"1966-101AP","CENTER_NAME":"EARTH","REF_FRAME":"TEME","TIME_SYSTEM":"UTC","MEAN_ELEMENT_THEORY":"SGP4","EPOCH":"1966-11-06T05:34:47.836703","MEAN_MOTION":"15.61429974","ECCENTRICITY":"0.04296130","INCLINATION":"49.4878","RA_OF_ASC_NODE":"33.7819","ARG_OF_PERICENTER":"84.0935","MEAN_ANOMALY":"280.7872","EPHEMERIS_TYPE":"0","CLASSIFICATION_TYPE":"U","NORAD_CAT_ID":"2586","ELEMENT_SET_NO":"999","REV_AT_EPOCH":"65","BSTAR":"0.00000000000000","MEAN_MOTION_DOT":"0.00000000","MEAN_MOTION_DDOT":"0.0000000000000","SEMIMAJOR_AXIS":"6761.666","PERIOD":"92.223","APOAPSIS":"674.021","PERIAPSIS":"93.041","OBJECT_TYPE":"DEBRIS","RCS_SIZE":null,"COUNTRY_CODE":null,"LAUNCH_DATE":null,"SITE":null,"DECAY_DATE":"1966-11-12","FILE":"33914","GP_ID":"8721619","TLE_LINE0":"0 CIS UNKNOWN 2 DEB","TLE_LINE1":"1 02586U 66101 AP 66310.23249811  .00000000 +00000-0 +00000-0 0  9991","TLE_LINE2":"2 02586 049.4878 033.7819 0429613 084.0935 280.7872 15.61429974000651"},{"CCSDS_OMM_VERS":"2.0","COMMENT":"GENERATED VIA SPACE-TRACK.ORG API","CREATION_DATE":"2004-08-15T23:35:47","ORIGINATOR":"18 SPCS","OBJECT_NAME":"SL-8 DEB","OBJECT_ID":"1965-020EJ","CENTER_NAME":"EARTH","REF_FRAME":"TEME","TIME_SYSTEM":"UTC","MEAN_ELEMENT_THEORY":"SGP4","EPOCH":"1966-11-06T23:43:47.898912","MEAN_MOTION":"16.06206127","ECCENTRICITY":"0.00000000","INCLINATION":"56.0766","RA_OF_ASC_NODE":"274.6743","ARG_OF_PERICENTER":"164.0285","MEAN_ANOMALY":"195.9713","EPHEMERIS_TYPE":"0","CLASSIFICATION_TYPE":"U","NORAD_CAT_ID":"2339","ELEMENT_SET_NO":"999","REV_AT_EPOCH":"8534","BSTAR":"0.00000000000000","MEAN_MOTION_DOT":"0.01391690","MEAN_MOTION_DDOT":"0.0049143000000","SEMIMAJOR_AXIS":"6635.412","PERIOD":"89.652","APOAPSIS":"257.277","PERIAPSIS":"257.277","OBJECT_TYPE":"DEBRIS","RCS_SIZE":null,"COUNTRY_CODE":null,"LAUNCH_DATE":null,"SITE":null,"DECAY_DATE":"1966-11-12","FILE":"33914","GP_ID":"8720558","TLE_LINE0":"0 SL-8 DEB","TLE_LINE1":"1 02339U 65020 EJ 66310.98874883  .01391690 +49143-2 +00000-0 0  9993","TLE_LINE2":"2 02339 056.0766 274.6743 0000000 164.0285 195.9713 16.06206127085344"},{"CCSDS_OMM_VERS":"2.0","COMMENT":"GENERATED VIA SPACE-TRACK.ORG API","CREATION_DATE":"2004-08-15T23:35:47","ORIGINATOR":"18 SPCS","OBJECT_NAME":"CIS UNKNOWN 2 DEB","OBJECT_ID":"1966-101D","CENTER_NAME":"EARTH","REF_FRAME":"TEME","TIME_SYSTEM":"UTC","MEAN_ELEMENT_THEORY":"SGP4","EPOCH":"1966-11-07T00:23:32.693568","MEAN_MOTION":"14.38282834","ECCENTRICITY":"0.09203250","INCLINATION":"49.4749","RA_OF_ASC_NODE":"32.2145","ARG_OF_PERICENTER":"105.2310","MEAN_ANOMALY":"265.1250","EPHEMERIS_TYPE":"0","CLASSIFICATION_TYPE":"U","NORAD_CAT_ID":"2540","ELEMENT_SET_NO":"999","REV_AT_EPOCH":"70","BSTAR":"0.00000000000000","MEAN_MOTION_DOT":"0.05867918","MEAN_MOTION_DDOT":"0.0000000000000","SEMIMAJOR_AXIS":"7142.319","PERIOD":"100.119","APOAPSIS":"1421.509","PERIAPSIS":"106.858","OBJECT_TYPE":"DEBRIS","RCS_SIZE":null,"COUNTRY_CODE":null,"LAUNCH_DATE":null,"SITE":null,"DECAY_DATE":"1966-11-13","FILE":"33914","GP_ID":"8721473","TLE_LINE0":"0 CIS UNKNOWN 2 DEB","TLE_LINE1":"1 02540U 66101  D 66311.01635062  .05867918 +00000-0 +00000-0 0  9999","TLE_LINE2":"2 02540 049.4749 032.2145 0920325 105.2310 265.1250 14.38282834000701"},{"CCSDS_OMM_VERS":"2.0","COMMENT":"GENERATED VIA SPACE-TRACK.ORG API","CREATION_DATE":"2004-08-15T23:35:47","ORIGINATOR":"18 SPCS","OBJECT_NAME":"CIS UNKNOWN 2 DEB","OBJECT_ID":"1966-101AM","CENTER_NAME":"EARTH","REF_FRAME":"TEME","TIME_SYSTEM":"UTC","MEAN_ELEMENT_THEORY":"SGP4","EPOCH":"1966-11-07T01:38:45.340511","MEAN_MOTION":"16.07722584","ECCENTRICITY":"0.02105020","INCLINATION":"49.8112","RA_OF_ASC_NODE":"29.3875","ARG_OF_PERICENTER":"114.3920","MEAN_ANOMALY":"247.8352","EPHEMERIS_TYPE":"0","CLASSIFICATION_TYPE":"U","NORAD_CAT_ID":"2584","ELEMENT_SET_NO":"999","REV_AT_EPOCH":"81","BSTAR":"0.00000000000000","MEAN_MOTION_DOT":"0.00014778","MEAN_MOTION_DDOT":"0.0000005665100","SEMIMAJOR_AXIS":"6631.239","PERIOD":"89.567","APOAPSIS":"392.693","PERIAPSIS":"113.515","OBJECT_TYPE":"DEBRIS","RCS_SIZE":null,"COUNTRY_CODE":null,"LAUNCH_DATE":null,"SITE":null,"DECAY_DATE":"1966-11-12","FILE":"33914","GP_ID":"8721617","TLE_LINE0":"0 CIS UNKNOWN 2 DEB","TLE_LINE1":"1 02584U 66101 AM 66311.06858033  .00014778 +56651-6 +00000-0 0  9999","TLE_LINE2":"2 02584 049.8112 029.3875 0210502 114.3920 247.8352 16.07722584000812"},{"CCSDS_OMM_VERS":"2.0","COMMENT":"GENERATED VIA SPACE-TRACK.ORG API","CREATION_DATE":"2004-08-15T23:35:47","ORIGINATOR":"18 SPCS","OBJECT_NAME":"CIS UNKNOWN 2 DEB","OBJECT_ID":"1966-101AN","CENTER_NAME":"EARTH","REF_FRAME":"TEME","TIME_SYSTEM":"UTC","MEAN_ELEMENT_THEORY":"SGP4","EPOCH":"1966-11-07T03:04:21.477503","MEAN_MOTION":"15.94019405","ECCENTRICITY":"0.02579950","INCLINATION":"49.6204","RA_OF_ASC_NODE":"29.1801","ARG_OF_PERICENTER":"136.7547","MEAN_ANOMALY":"225.3472","EPHEMERIS_TYPE":"0","CLASSIFICATION_TYPE":"U","NORAD_CAT_ID":"2585","ELEMENT_SET_NO":"999","REV_AT_EPOCH":"81","BSTAR":"0.00000000000000","MEAN_MOTION_DOT":"0.00103164","MEAN_MOTION_DDOT":"0.0000230940000","SEMIMAJOR_AXIS":"6669.189","PERIOD":"90.337","APOAPSIS":"463.116","PERIAPSIS":"118.992","OBJECT_TYPE":"DEBRIS","RCS_SIZE":null,"COUNTRY_CODE":null,"LAUNCH_DATE":null,"SITE":null,"DECAY_DATE":"1966-11-14","FILE":"33914","GP_ID":"8721618","TLE_LINE0":"0 CIS UNKNOWN 2 DEB","TLE_LINE1":"1 02585U 66101 AN 66311.12802636  .00103164 +23094-4 +00000-0 0  9996","TLE_LINE2":"2 02585 049.6204 029.1801 0257995 136.7547 225.3472 15.94019405000810"},{"CCSDS_OMM_VERS":"2.0","COMMENT":"GENERATED VIA SPACE-TRACK.ORG API","CREATION_DATE":"2004-08-15T23:35:47","ORIGINATOR":"18 SPCS","OBJECT_NAME":"CIS UNKNOWN 2 DEB","OBJECT_ID":"1966-101E","CENTER_NAME":"EARTH","REF_FRAME":"TEME","TIME_SYSTEM":"UTC","MEAN_ELEMENT_THEORY":"SGP4","EPOCH":"1966-11-07T05:18:54.182879","MEAN_MOTION":"14.58365017","ECCENTRICITY":"0.07114040","INCLINATION":"49.1748","RA_OF_ASC_NODE":"31.8962","ARG_OF_PERICENTER":"144.4815","MEAN_ANOMALY":"220.5276","EPHEMERIS_TYPE":"0","CLASSIFICATION_TYPE":"U","NORAD_CAT_ID":"2541","ELEMENT_SET_NO":"999","REV_AT_EPOCH":"75","BSTAR":"0.00000000000000","MEAN_MOTION_DOT":"0.01592881","MEAN_MOTION_DDOT":"0.0000000000000","SEMIMAJOR_AXIS":"7076.599","PERIOD":"98.740","APOAPSIS":"1201.896","PERIAPSIS":"195.032","OBJECT_TYPE":"DEBRIS","RCS_SIZE":null,"COUNTRY_CODE":null,"LAUNCH_DATE":null,"SITE":null,"DECAY_DATE":"1966-11-29","FILE":"33914","GP_ID":"8721475","TLE_LINE0":"0 CIS UNKNOWN 2 DEB","TLE_LINE1":"1 02541U 66101  E 66311.22146045  .01592881 +00000-0 +00000-0 0  9991","TLE_LINE2":"2 02541 049.1748 031.8962 0711404 144.4815 220.5276 14.58365017000756"},{"CCSDS_OMM_VERS":"2.0","COMMENT":"GENERATED VIA SPACE-TRACK.ORG API","CREATION_DATE":"2004-08-15T23:35:47","ORIGINATOR":"18 SPCS","OBJECT_NAME":"CIS UNKNOWN 2 DEB","OBJECT_ID":"1966-101B","CENTER_NAME":"EARTH","REF_FRAME":"TEME","TIME_SYSTEM":"UTC","MEAN_ELEMENT_THEORY":"SGP4","EPOCH":"1966-11-07T07:32:30.374879","MEAN_MOTION":"15.73651347","ECCENTRICITY":"0.03175690","INCLINATION":"49.4145","RA_OF_ASC_NODE":"26.7343","ARG_OF_PERICENTER":"95.8538","MEAN_ANOMALY":"267.7763","EPHEMERIS_TYPE":"0","CLASSIFICATION_TYPE":"U","NORAD_CAT_ID":"2538","ELEMENT_SET_NO":"999","REV_AT_EPOCH":"1070","BSTAR":"0.00000000000000","MEAN_MOTION_DOT":"0.00020092","MEAN_MOTION_DDOT":"0.0000007155300","SEMIMAJOR_AXIS":"6726.612","PERIOD":"91.506","APOAPSIS":"562.094","PERIAPSIS":"134.861","OBJECT_TYPE":"DEBRIS","RCS_SIZE":null,"COUNTRY_CODE":null,"LAUNCH_DATE":null,"SITE":null,"DECAY_DATE":"1966-11-22","FILE":"33914","GP_ID":"8721471","TLE_LINE0":"0 CIS UNKNOWN 2 DEB","TLE_LINE1":"1 02538U 66101  B 66311.31424045  .00020092 +71553-6 +00000-0 0  9992","TLE_LINE2":"2 02538 049.4145 026.7343 0317569 095.8538 267.7763 15.73651347010709"}]